ORBCOMM FM105           
1 41181U 15081C   26063.00468704  .00000394  00000+0  15503-3 0  9998
2 41181  47.0008  79.0219 0001275  11.1161 348.9748 14.45488333538338
ORBCOMM FM110           
1 41182U 15081D   26062.56178373  .00001282  00000+0  30825-3 0  9990
2 41182  47.0014 140.8129 0003548 295.0481  65.0036 14.58720495542206
ORBCOMM FM118           
1 41183U 15081E   26062.59636074  .00001228  00000+0  29689-3 0  9997
2 41183  47.0033 140.9629 0003884 264.1090  95.9353 14.58716363542315
ORBCOMM FM112           
1 41184U 15081F   26063.01028602  .00001040  00000+0  25689-3 0  9996
2 41184  46.9996  47.5080 0000994  53.6338 306.4639 14.58718421543595
ORBCOMM FM113           
1 41185U 15081G   26063.05599381  .00001000  00000+0  24842-3 0  9994
2 41185  47.0013  47.6591 0000577  63.2334 296.8611 14.58719604543581
ORBCOMM FM115           
1 41186U 15081H   26062.66987875  .00001069  00000+0  24000-3 0  9991
2 41186  46.9973 244.9013 0001160 205.8214 154.2615 14.63105979545769
ORBCOMM FM108           
1 41187U 15081J   26062.67618107  .00001299  00000+0  31190-3 0  9995
2 41187  47.0059 320.9947 0002200  59.3085 300.8017 14.58730739544678
ORBCOMM FM117           
1 41188U 15081K   26063.05266200  .00001285  00000+0  30902-3 0  9997
2 41188  47.0022 317.8837 0002525  72.5276 287.5886 14.58723735544775
ORBCOMM FM116           
1 41189U 15081L   26063.03344103  .00001186  00000+0  28805-3 0  9994
2 41189  47.0029  47.7556 0002670 292.9065  67.1539 14.58713856543583
